SL-4 R/B                
1 39679U 14021B   26005.15313601  .00011865  00000+0  27950-3 0  9991
2 39679  51.6085 286.7609 0099896 230.9546 128.2515 15.37306842646491
ALOS-2                  
1 39766U 14029A   26005.21165549  .00004562  00000+0  61732-3 0  9991
2 39766  97.9222 104.7229 0001348 104.5846 255.5515 14.79472534627484
YAOGAN-29               
1 41038U 15069A   26005.23401353  .00001087  00000+0  14073-3 0  9994
2 41038  98.0195  33.4791 0001712 144.1384 215.9944 14.82915578546473
ASTRO-H (HITOMI)        
1 41337U 16012A   26005.16549392  .00004029  00000+0  23919-3 0  9991
2 41337  31.0012  46.3319 0009544  54.6881 305.4648 15.09538504542626
HXMT (HUIYAN)           
1 42758U 17034A   26005.17450616  .00007058  00000+0  36188-3 0  9992
2 42758  43.0155   9.5563 0032599 195.4532 164.5323 15.16582131472898
CZ-2C R/B               
1 43521U 18054D   26005.16041157  .00143125  00000+0  72476-3 0  9995
2 43521  35.1340  21.4416 0011478  19.3671 340.7498 15.80031681418752
SAOCOM 1A               
1 43641U 18076A   26005.16557836 -.00000018  00000+0  42830-5 0  9995
2 43641  97.8837 194.2466 0001392  81.2723 278.8647 14.82164531391956
H-2A R/B                
1 43682U 18084L   26005.11664570  .00021681  00000+0  56755-3 0  9995
2 43682  98.8760 209.0599 0025901 243.9018 115.9557 15.38420774395990
SAOCOM 1B               
1 46265U 20059A   26005.19680161  .00000698  00000+0  94156-4 0  9995
2 46265  97.8834 193.3767 0001412  83.8805 276.2569 14.82169608289348
CSS (TIANHE)            
1 48274U 21035A   26005.08667035  .00015546  00000+0  18879-3 0  9990
2 48274  41.4650 234.8649 0010812 222.1039 137.8969 15.60186031267676
COSMOS 2550             
1 48865U 21056A   26005.20077677 -.00000173  00000+0  56239-6 0  9996
2 48865  67.1439 232.9711 0008375 269.9446  90.0749 15.33827770253722
CZ-2C R/B               
1 52794U 22058K   26005.15737389  .00031422  00000+0  53557-3 0  9999
2 52794  50.1907 284.0108 0043680 294.4183  65.2231 15.49960846200267
