CCSDS_OMM_VERS = 2.0
CREATION_DATE  = 
ORIGINATOR     = 

OBJECT_NAME    = SL-4 R/B
OBJECT_ID      = 2014-021B
CENTER_NAME    = EARTH
REF_FRAME      = TEME
TIME_SYSTEM    = UTC
MEAN_ELEMENT_THEORY = SGP/SGP4

EPOCH          = 2026-01-05T03:40:30.951264
MEAN_MOTION    = 15.37306842
ECCENTRICITY   = .0099896
INCLINATION    = 51.6085
RA_OF_ASC_NODE = 286.7609
ARG_OF_PERICENTER = 230.9546
MEAN_ANOMALY   = 128.2515

EPHEMERIS_TYPE = 0
CLASSIFICATION_TYPE = U
NORAD_CAT_ID   = 39679
ELEMENT_SET_NO = 999
REV_AT_EPOCH   = 64649
BSTAR          = .2795E-3
MEAN_MOTION_DOT = .11865E-3
MEAN_MOTION_DDOT = 0

CCSDS_OMM_VERS = 2.0
CREATION_DATE  = 
ORIGINATOR     = 

OBJECT_NAME    = ALOS-2
OBJECT_ID      = 2014-029A
CENTER_NAME    = EARTH
REF_FRAME      = TEME
TIME_SYSTEM    = UTC
MEAN_ELEMENT_THEORY = SGP/SGP4

EPOCH          = 2026-01-05T05:04:47.034336
MEAN_MOTION    = 14.79472534
ECCENTRICITY   = .0001348
INCLINATION    = 97.9222
RA_OF_ASC_NODE = 104.7229
ARG_OF_PERICENTER = 104.5846
MEAN_ANOMALY   = 255.5515

EPHEMERIS_TYPE = 0
CLASSIFICATION_TYPE = U
NORAD_CAT_ID   = 39766
ELEMENT_SET_NO = 999
REV_AT_EPOCH   = 62748
BSTAR          = .61732E-3
MEAN_MOTION_DOT = .4562E-4
MEAN_MOTION_DDOT = 0

CCSDS_OMM_VERS = 2.0
CREATION_DATE  = 
ORIGINATOR     = 

OBJECT_NAME    = YAOGAN-29
OBJECT_ID      = 2015-069A
CENTER_NAME    = EARTH
REF_FRAME      = TEME
TIME_SYSTEM    = UTC
MEAN_ELEMENT_THEORY = SGP/SGP4

EPOCH          = 2026-01-05T05:36:58.768992
MEAN_MOTION    = 14.82915578
ECCENTRICITY   = .0001712
INCLINATION    = 98.0195
RA_OF_ASC_NODE = 33.4791
ARG_OF_PERICENTER = 144.1384
MEAN_ANOMALY   = 215.9944

EPHEMERIS_TYPE = 0
CLASSIFICATION_TYPE = U
NORAD_CAT_ID   = 41038
ELEMENT_SET_NO = 999
REV_AT_EPOCH   = 54647
BSTAR          = .14073E-3
MEAN_MOTION_DOT = .1087E-4
MEAN_MOTION_DDOT = 0

CCSDS_OMM_VERS = 2.0
CREATION_DATE  = 
ORIGINATOR     = 

OBJECT_NAME    = ASTRO-H (HITOMI)
OBJECT_ID      = 2016-012A
CENTER_NAME    = EARTH
REF_FRAME      = TEME
TIME_SYSTEM    = UTC
MEAN_ELEMENT_THEORY = SGP/SGP4

EPOCH          = 2026-01-05T03:58:18.674688
MEAN_MOTION    = 15.09538504
ECCENTRICITY   = .0009544
INCLINATION    = 31.0012
RA_OF_ASC_NODE = 46.3319
ARG_OF_PERICENTER = 54.6881
MEAN_ANOMALY   = 305.4648

EPHEMERIS_TYPE = 0
CLASSIFICATION_TYPE = U
NORAD_CAT_ID   = 41337
ELEMENT_SET_NO = 999
REV_AT_EPOCH   = 54262
BSTAR          = .23919E-3
MEAN_MOTION_DOT = .4029E-4
MEAN_MOTION_DDOT = 0

CCSDS_OMM_VERS = 2.0
CREATION_DATE  = 
ORIGINATOR     = 

OBJECT_NAME    = HXMT (HUIYAN)
OBJECT_ID      = 2017-034A
CENTER_NAME    = EARTH
REF_FRAME      = TEME
TIME_SYSTEM    = UTC
MEAN_ELEMENT_THEORY = SGP/SGP4

EPOCH          = 2026-01-05T04:11:17.332224
MEAN_MOTION    = 15.16582131
ECCENTRICITY   = .0032599
INCLINATION    = 43.0155
RA_OF_ASC_NODE = 9.5563
ARG_OF_PERICENTER = 195.4532
MEAN_ANOMALY   = 164.5323

EPHEMERIS_TYPE = 0
CLASSIFICATION_TYPE = U
NORAD_CAT_ID   = 42758
ELEMENT_SET_NO = 999
REV_AT_EPOCH   = 47289
BSTAR          = .36188E-3
MEAN_MOTION_DOT = .7058E-4
MEAN_MOTION_DDOT = 0

CCSDS_OMM_VERS = 2.0
CREATION_DATE  = 
ORIGINATOR     = 

OBJECT_NAME    = CZ-2C R/B
OBJECT_ID      = 2018-054D
CENTER_NAME    = EARTH
REF_FRAME      = TEME
TIME_SYSTEM    = UTC
MEAN_ELEMENT_THEORY = SGP/SGP4

EPOCH          = 2026-01-05T03:50:59.559648
MEAN_MOTION    = 15.80031681
ECCENTRICITY   = .0011478
INCLINATION    = 35.1340
RA_OF_ASC_NODE = 21.4416
ARG_OF_PERICENTER = 19.3671
MEAN_ANOMALY   = 340.7498

EPHEMERIS_TYPE = 0
CLASSIFICATION_TYPE = U
NORAD_CAT_ID   = 43521
ELEMENT_SET_NO = 999
REV_AT_EPOCH   = 41875
BSTAR          = .72476E-3
MEAN_MOTION_DOT = .143125E-2
MEAN_MOTION_DDOT = 0

CCSDS_OMM_VERS = 2.0
CREATION_DATE  = 
ORIGINATOR     = 

OBJECT_NAME    = SAOCOM 1A
OBJECT_ID      = 2018-076A
CENTER_NAME    = EARTH
REF_FRAME      = TEME
TIME_SYSTEM    = UTC
MEAN_ELEMENT_THEORY = SGP/SGP4

EPOCH          = 2026-01-05T03:58:25.970304
MEAN_MOTION    = 14.82164531
ECCENTRICITY   = .0001392
INCLINATION    = 97.8837
RA_OF_ASC_NODE = 194.2466
ARG_OF_PERICENTER = 81.2723
MEAN_ANOMALY   = 278.8647

EPHEMERIS_TYPE = 0
CLASSIFICATION_TYPE = U
NORAD_CAT_ID   = 43641
ELEMENT_SET_NO = 999
REV_AT_EPOCH   = 39195
BSTAR          = .4283E-5
MEAN_MOTION_DOT = -.18E-6
MEAN_MOTION_DDOT = 0

CCSDS_OMM_VERS = 2.0
CREATION_DATE  = 
ORIGINATOR     = 

OBJECT_NAME    = H-2A R/B
OBJECT_ID      = 2018-084L
CENTER_NAME    = EARTH
REF_FRAME      = TEME
TIME_SYSTEM    = UTC
MEAN_ELEMENT_THEORY = SGP/SGP4

EPOCH          = 2026-01-05T02:47:58.188480
MEAN_MOTION    = 15.38420774
ECCENTRICITY   = .0025901
INCLINATION    = 98.8760
RA_OF_ASC_NODE = 209.0599
ARG_OF_PERICENTER = 243.9018
MEAN_ANOMALY   = 115.9557

EPHEMERIS_TYPE = 0
CLASSIFICATION_TYPE = U
NORAD_CAT_ID   = 43682
ELEMENT_SET_NO = 999
REV_AT_EPOCH   = 39599
BSTAR          = .56755E-3
MEAN_MOTION_DOT = .21681E-3
MEAN_MOTION_DDOT = 0

CCSDS_OMM_VERS = 2.0
CREATION_DATE  = 
ORIGINATOR     = 

OBJECT_NAME    = SAOCOM 1B
OBJECT_ID      = 2020-059A
CENTER_NAME    = EARTH
REF_FRAME      = TEME
TIME_SYSTEM    = UTC
MEAN_ELEMENT_THEORY = SGP/SGP4

EPOCH          = 2026-01-05T04:43:23.659104
MEAN_MOTION    = 14.82169608
ECCENTRICITY   = .0001412
INCLINATION    = 97.8834
RA_OF_ASC_NODE = 193.3767
ARG_OF_PERICENTER = 83.8805
MEAN_ANOMALY   = 276.2569

EPHEMERIS_TYPE = 0
CLASSIFICATION_TYPE = U
NORAD_CAT_ID   = 46265
ELEMENT_SET_NO = 999
REV_AT_EPOCH   = 28934
BSTAR          = .94156E-4
MEAN_MOTION_DOT = .698E-5
MEAN_MOTION_DDOT = 0

CCSDS_OMM_VERS = 2.0
CREATION_DATE  = 
ORIGINATOR     = 

OBJECT_NAME    = CSS (TIANHE)
OBJECT_ID      = 2021-035A
CENTER_NAME    = EARTH
REF_FRAME      = TEME
TIME_SYSTEM    = UTC
MEAN_ELEMENT_THEORY = SGP/SGP4

EPOCH          = 2026-01-05T02:04:48.318240
MEAN_MOTION    = 15.60186031
ECCENTRICITY   = .0010812
INCLINATION    = 41.4650
RA_OF_ASC_NODE = 234.8649
ARG_OF_PERICENTER = 222.1039
MEAN_ANOMALY   = 137.8969

EPHEMERIS_TYPE = 0
CLASSIFICATION_TYPE = U
NORAD_CAT_ID   = 48274
ELEMENT_SET_NO = 999
REV_AT_EPOCH   = 26767
BSTAR          = .18879E-3
MEAN_MOTION_DOT = .15546E-3
MEAN_MOTION_DDOT = 0

CCSDS_OMM_VERS = 2.0
CREATION_DATE  = 
ORIGINATOR     = 

OBJECT_NAME    = COSMOS 2550
OBJECT_ID      = 2021-056A
CENTER_NAME    = EARTH
REF_FRAME      = TEME
TIME_SYSTEM    = UTC
MEAN_ELEMENT_THEORY = SGP/SGP4

EPOCH          = 2026-01-05T04:49:07.112928
MEAN_MOTION    = 15.33827770
ECCENTRICITY   = .0008375
INCLINATION    = 67.1439
RA_OF_ASC_NODE = 232.9711
ARG_OF_PERICENTER = 269.9446
MEAN_ANOMALY   = 90.0749

EPHEMERIS_TYPE = 0
CLASSIFICATION_TYPE = U
NORAD_CAT_ID   = 48865
ELEMENT_SET_NO = 999
REV_AT_EPOCH   = 25372
BSTAR          = .56239E-6
MEAN_MOTION_DOT = -.173E-5
MEAN_MOTION_DDOT = 0

CCSDS_OMM_VERS = 2.0
CREATION_DATE  = 
ORIGINATOR     = 

OBJECT_NAME    = CZ-2C R/B
OBJECT_ID      = 2022-058K
CENTER_NAME    = EARTH
REF_FRAME      = TEME
TIME_SYSTEM    = UTC
MEAN_ELEMENT_THEORY = SGP/SGP4

EPOCH          = 2026-01-05T03:46:37.104096
MEAN_MOTION    = 15.49960846
ECCENTRICITY   = .004368
INCLINATION    = 50.1907
RA_OF_ASC_NODE = 284.0108
ARG_OF_PERICENTER = 294.4183
MEAN_ANOMALY   = 65.2231

EPHEMERIS_TYPE = 0
CLASSIFICATION_TYPE = U
NORAD_CAT_ID   = 52794
ELEMENT_SET_NO = 999
REV_AT_EPOCH   = 20026
BSTAR          = .53557E-3
MEAN_MOTION_DOT = .31422E-3
MEAN_MOTION_DDOT = 0

